[{"OBJECT_NAME":"FLOCK 4Q-11","OBJECT_ID":"2023-174T","EPOCH":"2026-03-28T19:06:32.035968","MEAN_MOTION":15.46168507,"ECCENTRICITY":0.00075054,"INCLINATION":97.3881,"RA_OF_ASC_NODE":174.7593,"ARG_OF_PERICENTER":98.7687,"MEAN_ANOMALY":261.4413,"EPHEMERIS_TYPE":0,"CLASSIFICATION_TYPE":"U","NORAD_CAT_ID":58273,"ELEMENT_SET_NO":999,"REV_AT_EPOCH":13315,"BSTAR":0.00059383463,"MEAN_MOTION_DOT":0.00029142,"MEAN_MOTION_DDOT":0},{"OBJECT_NAME":"FLOCK 4Q-36","OBJECT_ID":"2023-174U","EPOCH":"2026-03-28T19:50:55.499136","MEAN_MOTION":15.52265305,"ECCENTRICITY":0.00075379,"INCLINATION":97.3858,"RA_OF_ASC_NODE":177.6247,"ARG_OF_PERICENTER":86.5782,"MEAN_ANOMALY":273.6333,"EPHEMERIS_TYPE":0,"CLASSIFICATION_TYPE":"U","NORAD_CAT_ID":58274,"ELEMENT_SET_NO":999,"REV_AT_EPOCH":13334,"BSTAR":0.00065298642,"MEAN_MOTION_DOT":0.00039742,"MEAN_MOTION_DDOT":0},{"OBJECT_NAME":"FLOCK 4Q-12","OBJECT_ID":"2023-174V","EPOCH":"2026-03-28T19:27:32.611968","MEAN_MOTION":15.55409734,"ECCENTRICITY":0.00036534,"INCLINATION":97.3856,"RA_OF_ASC_NODE":177.5522,"ARG_OF_PERICENTER":91.9587,"MEAN_ANOMALY":268.2086,"EPHEMERIS_TYPE":0,"CLASSIFICATION_TYPE":"U","NORAD_CAT_ID":58275,"ELEMENT_SET_NO":999,"REV_AT_EPOCH":13336,"BSTAR":0.0014985162,"MEAN_MOTION_DOT":0.0010306,"MEAN_MOTION_DDOT":0},{"OBJECT_NAME":"FLOCK 4Q-28","OBJECT_ID":"2023-174AA","EPOCH":"2026-03-28T19:25:12.664704","MEAN_MOTION":15.5029326,"ECCENTRICITY":0.00066282,"INCLINATION":97.3885,"RA_OF_ASC_NODE":176.6639,"ARG_OF_PERICENTER":93.2076,"MEAN_ANOMALY":266.9934,"EPHEMERIS_TYPE":0,"CLASSIFICATION_TYPE":"U","NORAD_CAT_ID":58280,"ELEMENT_SET_NO":999,"REV_AT_EPOCH":13327,"BSTAR":0.00061712933,"MEAN_MOTION_DOT":0.0003498,"MEAN_MOTION_DDOT":0},{"OBJECT_NAME":"FLOCK 4Q-27","OBJECT_ID":"2023-174AC","EPOCH":"2026-03-28T22:25:46.154208","MEAN_MOTION":15.5024528,"ECCENTRICITY":0.00062285,"INCLINATION":97.3825,"RA_OF_ASC_NODE":176.3151,"ARG_OF_PERICENTER":91.2881,"MEAN_ANOMALY":268.9084,"EPHEMERIS_TYPE":0,"CLASSIFICATION_TYPE":"U","NORAD_CAT_ID":58282,"ELEMENT_SET_NO":999,"REV_AT_EPOCH":13330,"BSTAR":0.0006566615,"MEAN_MOTION_DOT":0.00037171,"MEAN_MOTION_DDOT":0},{"OBJECT_NAME":"FLOCK 4Q-26","OBJECT_ID":"2023-174AE","EPOCH":"2026-03-28T18:09:44.187552","MEAN_MOTION":15.52141593,"ECCENTRICITY":0.00071056,"INCLINATION":97.3877,"RA_OF_ASC_NODE":177.6359,"ARG_OF_PERICENTER":90.1298,"MEAN_ANOMALY":270.0769,"EPHEMERIS_TYPE":0,"CLASSIFICATION_TYPE":"U","NORAD_CAT_ID":58284,"ELEMENT_SET_NO":999,"REV_AT_EPOCH":13333,"BSTAR":0.00059318431,"MEAN_MOTION_DOT":0.00035912,"MEAN_MOTION_DDOT":0},{"OBJECT_NAME":"FLOCK 4Q-31","OBJECT_ID":"2023-174AF","EPOCH":"2026-03-28T20:33:46.872864","MEAN_MOTION":15.51875291,"ECCENTRICITY":0.00072456,"INCLINATION":97.3915,"RA_OF_ASC_NODE":177.3812,"ARG_OF_PERICENTER":92.5185,"MEAN_ANOMALY":267.6897,"EPHEMERIS_TYPE":0,"CLASSIFICATION_TYPE":"U","NORAD_CAT_ID":58285,"ELEMENT_SET_NO":999,"REV_AT_EPOCH":13330,"BSTAR":0.00080723215,"MEAN_MOTION_DOT":0.00048521,"MEAN_MOTION_DDOT":0},{"OBJECT_NAME":"FLOCK 4Q-30","OBJECT_ID":"2023-174AG","EPOCH":"2026-03-28T18:39:53.651520","MEAN_MOTION":15.52105753,"ECCENTRICITY":0.00059171,"INCLINATION":97.3944,"RA_OF_ASC_NODE":177.4912,"ARG_OF_PERICENTER":94.4687,"MEAN_ANOMALY":265.7241,"EPHEMERIS_TYPE":0,"CLASSIFICATION_TYPE":"U","NORAD_CAT_ID":58286,"ELEMENT_SET_NO":999,"REV_AT_EPOCH":13330,"BSTAR":0.00077167556,"MEAN_MOTION_DOT":0.00046736,"MEAN_MOTION_DDOT":0},{"OBJECT_NAME":"PELICAN-1","OBJECT_ID":"2023-174AS","EPOCH":"2026-03-28T04:48:12.165120","MEAN_MOTION":15.6314368,"ECCENTRICITY":0.00093863,"INCLINATION":97.3996,"RA_OF_ASC_NODE":182.8276,"ARG_OF_PERICENTER":241.6544,"MEAN_ANOMALY":118.3768,"EPHEMERIS_TYPE":0,"CLASSIFICATION_TYPE":"U","NORAD_CAT_ID":58296,"ELEMENT_SET_NO":999,"REV_AT_EPOCH":13345,"BSTAR":0.00029225921,"MEAN_MOTION_DOT":0.00026623,"MEAN_MOTION_DDOT":0},{"OBJECT_NAME":"FLOCK 4Q-29","OBJECT_ID":"2023-174BA","EPOCH":"2026-03-28T18:09:45.383328","MEAN_MOTION":15.50815693,"ECCENTRICITY":0.0006535,"INCLINATION":97.3929,"RA_OF_ASC_NODE":177.0246,"ARG_OF_PERICENTER":84.7211,"MEAN_ANOMALY":275.4786,"EPHEMERIS_TYPE":0,"CLASSIFICATION_TYPE":"U","NORAD_CAT_ID":58304,"ELEMENT_SET_NO":999,"REV_AT_EPOCH":13327,"BSTAR":0.00061622412,"MEAN_MOTION_DOT":0.00035582,"MEAN_MOTION_DDOT":0},{"OBJECT_NAME":"FLOCK 4Q-22","OBJECT_ID":"2023-174BC","EPOCH":"2026-03-28T19:29:13.336224","MEAN_MOTION":15.53725117,"ECCENTRICITY":0.00053187,"INCLINATION":97.3824,"RA_OF_ASC_NODE":177.3203,"ARG_OF_PERICENTER":88.0642,"MEAN_ANOMALY":272.122,"EPHEMERIS_TYPE":0,"CLASSIFICATION_TYPE":"U","NORAD_CAT_ID":58306,"ELEMENT_SET_NO":999,"REV_AT_EPOCH":13336,"BSTAR":0.00067774921,"MEAN_MOTION_DOT":0.00043474,"MEAN_MOTION_DDOT":0},{"OBJECT_NAME":"FLOCK 4Q-23","OBJECT_ID":"2023-174BD","EPOCH":"2026-03-28T19:01:35.678784","MEAN_MOTION":15.57129877,"ECCENTRICITY":0.00058173,"INCLINATION":97.3941,"RA_OF_ASC_NODE":178.9917,"ARG_OF_PERICENTER":80.5679,"MEAN_ANOMALY":279.6234,"EPHEMERIS_TYPE":0,"CLASSIFICATION_TYPE":"U","NORAD_CAT_ID":58307,"ELEMENT_SET_NO":999,"REV_AT_EPOCH":13340,"BSTAR":0.00068040968,"MEAN_MOTION_DOT":0.00049493,"MEAN_MOTION_DDOT":0},{"OBJECT_NAME":"FLOCK 4Q-33","OBJECT_ID":"2023-174BE","EPOCH":"2026-03-28T19:27:04.547520","MEAN_MOTION":15.52663249,"ECCENTRICITY":0.000654,"INCLINATION":97.3863,"RA_OF_ASC_NODE":177.2339,"ARG_OF_PERICENTER":74.1348,"MEAN_ANOMALY":286.0625,"EPHEMERIS_TYPE":0,"CLASSIFICATION_TYPE":"U","NORAD_CAT_ID":58308,"ELEMENT_SET_NO":999,"REV_AT_EPOCH":13334,"BSTAR":0.00064180973,"MEAN_MOTION_DOT":0.0003961,"MEAN_MOTION_DDOT":0},{"OBJECT_NAME":"FLOCK 4Q-35","OBJECT_ID":"2023-174BF","EPOCH":"2026-03-28T19:27:23.866560","MEAN_MOTION":15.51578017,"ECCENTRICITY":0.00065717,"INCLINATION":97.3887,"RA_OF_ASC_NODE":177.3733,"ARG_OF_PERICENTER":89.0688,"MEAN_ANOMALY":271.1317,"EPHEMERIS_TYPE":0,"CLASSIFICATION_TYPE":"U","NORAD_CAT_ID":58309,"ELEMENT_SET_NO":999,"REV_AT_EPOCH":13332,"BSTAR":0.00065596643,"MEAN_MOTION_DOT":0.0003894,"MEAN_MOTION_DDOT":0},{"OBJECT_NAME":"FLOCK 4Q-34","OBJECT_ID":"2023-174BN","EPOCH":"2026-03-28T19:13:03.965376","MEAN_MOTION":15.57392713,"ECCENTRICITY":0.0005811,"INCLINATION":97.384,"RA_OF_ASC_NODE":178.3798,"ARG_OF_PERICENTER":80.0848,"MEAN_ANOMALY":280.1063,"EPHEMERIS_TYPE":0,"CLASSIFICATION_TYPE":"U","NORAD_CAT_ID":58316,"ELEMENT_SET_NO":999,"REV_AT_EPOCH":13341,"BSTAR":0.0007240107,"MEAN_MOTION_DOT":0.00053213,"MEAN_MOTION_DDOT":0},{"OBJECT_NAME":"FLOCK 4Q-7","OBJECT_ID":"2023-174BQ","EPOCH":"2026-03-28T22:09:29.367648","MEAN_MOTION":15.50577473,"ECCENTRICITY":0.00067505,"INCLINATION":97.3916,"RA_OF_ASC_NODE":176.9943,"ARG_OF_PERICENTER":77.5472,"MEAN_ANOMALY":282.6534,"EPHEMERIS_TYPE":0,"CLASSIFICATION_TYPE":"U","NORAD_CAT_ID":58318,"ELEMENT_SET_NO":999,"REV_AT_EPOCH":13329,"BSTAR":0.00073008544,"MEAN_MOTION_DOT":0.00041856,"MEAN_MOTION_DDOT":0}]
