FLOCK 4Q-11             
1 58273U 23174T   26087.79620412  .00029142  00000+0  59383-3 0  9994
2 58273  97.3881 174.7593 0007505  98.7687 261.4413 15.46168507133158
FLOCK 4Q-36             
1 58274U 23174U   26087.82703124  .00039742  00000+0  65299-3 0  9991
2 58274  97.3858 177.6247 0007537  86.5782 273.6333 15.52265305133345
FLOCK 4Q-12             
1 58275U 23174V   26087.81079412  .00103060  00000+0  14985-2 0  9997
2 58275  97.3856 177.5522 0003653  91.9587 268.2086 15.55409734133363
FLOCK 4Q-28             
1 58280U 23174AA  26087.80917436  .00034980  00000+0  61713-3 0  9995
2 58280  97.3885 176.6639 0006628  93.2076 266.9934 15.50293260133270
FLOCK 4Q-27             
1 58282U 23174AC  26087.93456197  .00037171  00000+0  65666-3 0  9999
2 58282  97.3825 176.3151 0006228  91.2881 268.9084 15.50245280133301
FLOCK 4Q-26             
1 58284U 23174AE  26087.75676143  .00035912  00000+0  59318-3 0  9994
2 58284  97.3877 177.6359 0007105  90.1298 270.0769 15.52141593133330
FLOCK 4Q-31             
1 58285U 23174AF  26087.85679251  .00048521  00000+0  80723-3 0  9993
2 58285  97.3915 177.3812 0007245  92.5185 267.6897 15.51875291133300
FLOCK 4Q-30             
1 58286U 23174AG  26087.77770430  .00046736  00000+0  77168-3 0  9991
2 58286  97.3944 177.4912 0005917  94.4687 265.7241 15.52105753133309
PELICAN-1               
1 58296U 23174AS  26087.20014080  .00026623  00000+0  29226-3 0  9997
2 58296  97.3996 182.8276 0009386 241.6544 118.3768 15.63143680133458
FLOCK 4Q-29             
1 58304U 23174BA  26087.75677527  .00035582  00000+0  61622-3 0  9998
2 58304  97.3929 177.0246 0006535  84.7211 275.4786 15.50815693133278
FLOCK 4Q-22             
1 58306U 23174BC  26087.81195991  .00043474  00000+0  67775-3 0  9991
2 58306  97.3824 177.3203 0005318  88.0642 272.1220 15.53725117133364
FLOCK 4Q-23             
1 58307U 23174BD  26087.79277406  .00049493  00000+0  68041-3 0  9995
2 58307  97.3941 178.9917 0005817  80.5679 279.6234 15.57129877133402
FLOCK 4Q-33             
1 58308U 23174BE  26087.81046930  .00039610  00000+0  64181-3 0  9996
2 58308  97.3863 177.2339 0006540  74.1348 286.0625 15.52663249133342
FLOCK 4Q-35             
1 58309U 23174BF  26087.81069290  .00038940  00000+0  65597-3 0  9998
2 58309  97.3887 177.3733 0006571  89.0688 271.1317 15.51578017133322
FLOCK 4Q-34             
1 58316U 23174BN  26087.80074034  .00053213  00000+0  72401-3 0  9999
2 58316  97.3840 178.3798 0005811  80.0848 280.1063 15.57392713133417
FLOCK 4Q-7              
1 58318U 23174BQ  26087.92325657  .00041856  00000+0  73009-3 0  9999
2 58318  97.3916 176.9943 0006750  77.5472 282.6534 15.50577473133293
